{
  "type": "FeatureCollection",
  "features": [
    {
      "type": "Feature",
      "properties": {
        "norad_id": 32393,
        "name": "COSMOS 2434 (721)",
        "group": "gnss",
        "lat": -9.09557996128638,
        "lon": -166.60957936893837,
        "alt_km": 19130.022078120543,
        "timestamp": "2025-12-24T11:33:00.257144+00:00",
        "meta_object_name": "COSMOS 2434 (721)",
        "meta_object_id": "2007-065A",
        "meta_epoch": "2025-12-24T05:14:54.087648",
        "meta_mean_motion": 2.13101448,
        "meta_eccentricity": 0.0004819,
        "meta_inclination": 64.3158,
        "meta_ra_of_asc_node": 197.8158,
        "meta_arg_of_pericenter": 72.4186,
        "meta_mean_anomaly": 76.1522,
        "meta_ephemeris_type": 0,
        "meta_classification_type": "U",
        "meta_norad_cat_id": 32393,
        "meta_element_set_no": 999,
        "meta_rev_at_epoch": 14004,
        "meta_bstar": 0,
        "meta_mean_motion_dot": 9.8e-07,
        "meta_mean_motion_ddot": 0,
        "tle_line1": "1 32393U 07065A   25358.21868157  .00000098  00000+0  00000+0 0  9994",
        "tle_line2": "2 32393  64.3158 197.8158 0004819  72.4186  76.1522  2.13101448140044"
      },
      "geometry": {
        "type": "Point",
        "coordinates": [
          -166.60957936893837,
          -9.09557996128638
        ]
      }
    },
    {
      "type": "Feature",
      "properties": {
        "norad_id": 32395,
        "name": "COSMOS 2436 (723)",
        "group": "gnss",
        "lat": 48.92823897770403,
        "lon": -15.641128453554124,
        "alt_km": 19142.086705130645,
        "timestamp": "2025-12-24T11:33:00.257156+00:00",
        "meta_object_name": "COSMOS 2436 (723)",
        "meta_object_id": "2007-065C",
        "meta_epoch": "2025-12-23T14:51:15.098400",
        "meta_mean_motion": 2.13100222,
        "meta_eccentricity": 0.00178112,
        "meta_inclination": 64.3245,
        "meta_ra_of_asc_node": 197.9064,
        "meta_arg_of_pericenter": 10.214,
        "meta_mean_anomaly": 171.2752,
        "meta_ephemeris_type": 0,
        "meta_classification_type": "U",
        "meta_norad_cat_id": 32395,
        "meta_element_set_no": 999,
        "meta_rev_at_epoch": 13998,
        "meta_bstar": 0,
        "meta_mean_motion_dot": 9.6e-07,
        "meta_mean_motion_ddot": 0,
        "tle_line1": "1 32395U 07065C   25357.61892475  .00000096  00000+0  00000+0 0  9997",
        "tle_line2": "2 32395  64.3245 197.9064 0017811  10.2140 171.2752  2.13100222139988"
      },
      "geometry": {
        "type": "Point",
        "coordinates": [
          -15.641128453554124,
          48.92823897770403
        ]
      }
    },
    {
      "type": "Feature",
      "properties": {
        "norad_id": 32711,
        "name": "GPS BIIRM-6 (PRN 07)",
        "group": "gnss",
        "lat": -46.79261644518606,
        "lon": 26.403946957551547,
        "alt_km": 19648.838042129126,
        "timestamp": "2025-12-24T11:33:00.257168+00:00",
        "meta_object_name": "GPS BIIRM-6 (PRN 07)",
        "meta_object_id": "2008-012A",
        "meta_epoch": "2025-12-23T15:24:58.036896",
        "meta_mean_motion": 2.00566087,
        "meta_eccentricity": 0.0202929,
        "meta_inclination": 54.4783,
        "meta_ra_of_asc_node": 156.9378,
        "meta_arg_of_pericenter": 245.0761,
        "meta_mean_anomaly": 112.7872,
        "meta_ephemeris_type": 0,
        "meta_classification_type": "U",
        "meta_norad_cat_id": 32711,
        "meta_element_set_no": 999,
        "meta_rev_at_epoch": 13023,
        "meta_bstar": 0,
        "meta_mean_motion_dot": 8.4e-07,
        "meta_mean_motion_ddot": 0,
        "tle_line1": "1 32711U 08012A   25357.64233839  .00000084  00000+0  00000+0 0  9995",
        "tle_line2": "2 32711  54.4783 156.9378 0202929 245.0761 112.7872  2.00566087130236"
      },
      "geometry": {
        "type": "Point",
        "coordinates": [
          26.403946957551547,
          -46.79261644518606
        ]
      }
    },
    {
      "type": "Feature",
      "properties": {
        "norad_id": 35752,
        "name": "GPS BIIRM-8 (PRN 05)",
        "group": "gnss",
        "lat": -55.53736750197806,
        "lon": -67.31755875011426,
        "alt_km": 20325.21298181447,
        "timestamp": "2025-12-24T11:33:00.257180+00:00",
        "meta_object_name": "GPS BIIRM-8 (PRN 05)",
        "meta_object_id": "2009-043A",
        "meta_epoch": "2025-12-24T04:14:37.984992",
        "meta_mean_motion": 2.00564964,
        "meta_eccentricity": 0.0051588,
        "meta_inclination": 56.0988,
        "meta_ra_of_asc_node": 34.3322,
        "meta_arg_of_pericenter": 81.7352,
        "meta_mean_anomaly": 321.9432,
        "meta_ephemeris_type": 0,
        "meta_classification_type": "U",
        "meta_norad_cat_id": 35752,
        "meta_element_set_no": 999,
        "meta_rev_at_epoch": 11985,
        "meta_bstar": 0,
        "meta_mean_motion_dot": -5.1e-07,
        "meta_mean_motion_ddot": 0,
        "tle_line1": "1 35752U 09043A   25358.17682853 -.00000051  00000+0  00000+0 0  9996",
        "tle_line2": "2 35752  56.0988  34.3322 0051588  81.7352 321.9432  2.00564964119854"
      },
      "geometry": {
        "type": "Point",
        "coordinates": [
          -67.31755875011426,
          -55.53736750197806
        ]
      }
    },
    {
      "type": "Feature",
      "properties": {
        "norad_id": 36111,
        "name": "COSMOS 2456 (730)",
        "group": "gnss",
        "lat": 29.44041802949326,
        "lon": -118.36226858402922,
        "alt_km": 19134.301433808316,
        "timestamp": "2025-12-24T11:33:00.257191+00:00",
        "meta_object_name": "COSMOS 2456 (730)",
        "meta_object_id": "2009-070A",
        "meta_epoch": "2025-12-24T01:59:16.692576",
        "meta_mean_motion": 2.13103745,
        "meta_eccentricity": 0.000365,
        "meta_inclination": 64.9059,
        "meta_ra_of_asc_node": 76.9503,
        "meta_arg_of_pericenter": 295.0224,
        "meta_mean_anomaly": 266.4736,
        "meta_ephemeris_type": 0,
        "meta_classification_type": "U",
        "meta_norad_cat_id": 36111,
        "meta_element_set_no": 999,
        "meta_rev_at_epoch": 12469,
        "meta_bstar": 0,
        "meta_mean_motion_dot": -1e-08,
        "meta_mean_motion_ddot": 0,
        "tle_line1": "1 36111U 09070A   25358.08283209 -.00000001  00000+0  00000+0 0  9993",
        "tle_line2": "2 36111  64.9059  76.9503 0003650 295.0224 266.4736  2.13103745124697"
      },
      "geometry": {
        "type": "Point",
        "coordinates": [
          -118.36226858402922,
          29.44041802949326
        ]
      }
    },
    {
      "type": "Feature",
      "properties": {
        "norad_id": 36112,
        "name": "COSMOS 2457 (733)",
        "group": "gnss",
        "lat": -64.20160672989397,
        "lon": 1.1911340513223398,
        "alt_km": 19141.112648991846,
        "timestamp": "2025-12-24T11:33:00.257203+00:00",
        "meta_object_name": "COSMOS 2457 (733)",
        "meta_object_id": "2009-070B",
        "meta_epoch": "2025-12-23T15:49:23.328192",
        "meta_mean_motion": 2.13101141,
        "meta_eccentricity": 0.00045057,
        "meta_inclination": 64.8913,
        "meta_ra_of_asc_node": 76.812,
        "meta_arg_of_pericenter": 162.7292,
        "meta_mean_anomaly": 202.8862,
        "meta_ephemeris_type": 0,
        "meta_classification_type": "U",
        "meta_norad_cat_id": 36112,
        "meta_element_set_no": 999,
        "meta_rev_at_epoch": 12469,
        "meta_bstar": 0,
        "meta_mean_motion_dot": -1e-08,
        "meta_mean_motion_ddot": 0,
        "tle_line1": "1 36112U 09070B   25357.65929778 -.00000001  00000+0  00000+0 0  9994",
        "tle_line2": "2 36112  64.8913  76.8120 0004505 162.7292 202.8862  2.13101141124697"
      },
      "geometry": {
        "type": "Point",
        "coordinates": [
          1.1911340513223398,
          -64.20160672989397
        ]
      }
    },
    {
      "type": "Feature",
      "properties": {
        "norad_id": 36402,
        "name": "COSMOS 2460 (732)",
        "group": "gnss",
        "lat": -64.871946679996,
        "lon": -115.692468038745,
        "alt_km": 19129.866712438812,
        "timestamp": "2025-12-24T11:33:00.257215+00:00",
        "meta_object_name": "COSMOS 2460 (732)",
        "meta_object_id": "2010-007C",
        "meta_epoch": "2025-12-24T05:56:36.176352",
        "meta_mean_motion": 2.1310636,
        "meta_eccentricity": 0.0002497,
        "meta_inclination": 65.5233,
        "meta_ra_of_asc_node": 320.3848,
        "meta_arg_of_pericenter": 284.0836,
        "meta_mean_anomaly": 172.5466,
        "meta_ephemeris_type": 0,
        "meta_classification_type": "U",
        "meta_norad_cat_id": 36402,
        "meta_element_set_no": 999,
        "meta_rev_at_epoch": 12300,
        "meta_bstar": 0,
        "meta_mean_motion_dot": -3.3e-07,
        "meta_mean_motion_ddot": 0,
        "tle_line1": "1 36402U 10007C   25358.24764093 -.00000033  00000+0  00000+0 0  9996",
        "tle_line2": "2 36402  65.5233 320.3848 0002497 284.0836 172.5466  2.13106360123001"
      },
      "geometry": {
        "type": "Point",
        "coordinates": [
          -115.692468038745,
          -64.871946679996
        ]
      }
    }
  ]
}